*******************************************************************************
Ephemeris / WWW_USER Mon Mar 24 11:34:24 2025 Pasadena, USA      / Horizons    
*******************************************************************************
Target body name: 468861 (2013 LU28)              {source: JPL#36}
Center body name: Earth (399)                     {source: DE441}
Center-site name: Mauna Kea
*******************************************************************************
Start time      : A.D. 2018-Aug-04 05:07:00.0000 UT      
Stop  time      : A.D. 2018-Aug-04 15:49:00.0000 UT      
Step-size       : 1 minutes
*******************************************************************************
Target pole/equ : undefined
Target radii    : undefined                                                    
Center geodetic : 204.5278, 19.8260847, 4.21024   {E-lon(deg),Lat(deg),Alt(km)}
Center cylindric: 204.5278, 6006.35451, 2151.0229 {E-lon(deg),Dxy(km),Dz(km)}
Center pole/equ : ITRF93                          {East-longitude positive}
Center radii    : 6378.137, 6378.137, 6356.752 km {Equator_a, b, pole_c}       
Target primary  : Sun
Vis. interferer : MOON (R_eq= 1737.400) km        {source: DE441}
Rel. light bend : Sun                             {source: DE441}
Rel. lght bnd GM: 1.3271E+11 km^3/s^2                                          
Small-body perts: Yes                             {source: SB441-N16}
Atmos refraction: NO (AIRLESS)
RA format       : HMS
Time format     : CAL 
Calendar mode   : Mixed Julian/Gregorian
RTS-only print  : NO       
EOP file        : eop.250321.p250617                                           
EOP coverage    : DATA-BASED 1962-JAN-20 TO 2025-MAR-21. PREDICTS-> 2025-JUN-16
Units conversion: 1 au= 149597870.700 km, c= 299792.458 km/s, 1 day= 86400.0 s 
Table cut-offs 1: Elevation (-90.0deg=NO ),Airmass (>38.000=NO), Daylight (YES)
Table cut-offs 2: Solar elongation (  0.0,180.0=NO ),Local Hour Angle( 0.0=NO )
Table cut-offs 3: RA/DEC angular rate (     0.0=NO )                           
*******************************************************************************
Initial IAU76/J2000 heliocentric ecliptic osculating elements (au, days, deg.):
  EPOCH=  2459491.5 ! 2021-Oct-04.00 (TDB)         Residual RMS= .14077        
   EC= .9545524767334098   QR= 8.741840911970645   TP= 2460480.7801673855      
   OM= 275.9923561772391   W=  152.9171912923278   IN= 125.3473013584344       
  Equivalent ICRF heliocentric cartesian coordinates (au, au/d):
   X=-6.020062670108302E+00  Y=-1.182282064265113E+00  Z= 8.330249486138040E+00
  VX= 2.086988006100027E-03 VY= 7.079392581348984E-03 VZ=-1.092497303529149E-03
Asteroid physical parameters (km, seconds, rotational period in hours):        
   GM= n.a.                RAD= n.a.               ROTPER= n.a.                
   H= 8.24                 G= .150                 B-V= n.a.                   
                           ALBEDO= n.a.            STYP= n.a.                  
*******************************************************************************
 Date__(UT)__HR:MN     R.A._________(ICRF)_________DEC
******************************************************
$$SOE
 2018-Aug-04 13:19  m  14 59 34.430537 +37 00 16.34647
 2018-Aug-04 13:20  m  14 59 34.426351 +37 00 16.24709
 2018-Aug-04 13:21  m  14 59 34.422165 +37 00 16.14771
 2018-Aug-04 13:22  m  14 59 34.417980 +37 00 16.04833
 2018-Aug-04 13:23  m  14 59 34.413796 +37 00 15.94896
 2018-Aug-04 13:24  m  14 59 34.409613 +37 00 15.84960
 2018-Aug-04 13:25  m  14 59 34.405431 +37 00 15.75024
 2018-Aug-04 13:26  m  14 59 34.401249 +37 00 15.65088
 2018-Aug-04 13:27  m  14 59 34.397068 +37 00 15.55152
 2018-Aug-04 13:28  m  14 59 34.392888 +37 00 15.45217
 2018-Aug-04 13:29  m  14 59 34.388709 +37 00 15.35283
 2018-Aug-04 13:30  m  14 59 34.384531 +37 00 15.25349
 2018-Aug-04 13:31  m  14 59 34.380353 +37 00 15.15415
 2018-Aug-04 13:32  m  14 59 34.376177 +37 00 15.05482
 2018-Aug-04 13:33  m  14 59 34.372001 +37 00 14.95549
 2018-Aug-04 13:34  m  14 59 34.367826 +37 00 14.85616
 2018-Aug-04 13:35  m  14 59 34.363651 +37 00 14.75684
 2018-Aug-04 13:36  m  14 59 34.359478 +37 00 14.65753
 2018-Aug-04 13:37  m  14 59 34.355305 +37 00 14.55821
 2018-Aug-04 13:38  m  14 59 34.351133 +37 00 14.45891
 2018-Aug-04 13:39  m  14 59 34.346962 +37 00 14.35960
 2018-Aug-04 13:40  m  14 59 34.342792 +37 00 14.26030
 2018-Aug-04 13:41  m  14 59 34.338622 +37 00 14.16101
 2018-Aug-04 13:42  m  14 59 34.334453 +37 00 14.06172
 2018-Aug-04 13:43  m  14 59 34.330285 +37 00 13.96243
 2018-Aug-04 13:44  m  14 59 34.326118 +37 00 13.86315
 2018-Aug-04 13:45  m  14 59 34.321951 +37 00 13.76388
 2018-Aug-04 13:46  m  14 59 34.317785 +37 00 13.66460
 2018-Aug-04 13:47  m  14 59 34.313620 +37 00 13.56534
 2018-Aug-04 13:48  m  14 59 34.309456 +37 00 13.46607
 2018-Aug-04 13:49  m  14 59 34.305293 +37 00 13.36682
 2018-Aug-04 13:50  m  14 59 34.301130 +37 00 13.26756
 2018-Aug-04 13:51  m  14 59 34.296968 +37 00 13.16831
 2018-Aug-04 13:52  m  14 59 34.292807 +37 00 13.06907
 2018-Aug-04 13:53  m  14 59 34.288646 +37 00 12.96983
 2018-Aug-04 13:54  m  14 59 34.284486 +37 00 12.87059
 2018-Aug-04 13:55  m  14 59 34.280327 +37 00 12.77136
 2018-Aug-04 13:56  m  14 59 34.276169 +37 00 12.67213
 2018-Aug-04 13:57  m  14 59 34.272011 +37 00 12.57291
 2018-Aug-04 13:58  m  14 59 34.267854 +37 00 12.47369
 2018-Aug-04 13:59  m  14 59 34.263698 +37 00 12.37448
 2018-Aug-04 14:00  m  14 59 34.259543 +37 00 12.27527
 2018-Aug-04 14:01  m  14 59 34.255388 +37 00 12.17607
 2018-Aug-04 14:02  m  14 59 34.251234 +37 00 12.07687
 2018-Aug-04 14:03  m  14 59 34.247080 +37 00 11.97768
 2018-Aug-04 14:04  m  14 59 34.242928 +37 00 11.87849
 2018-Aug-04 14:05  m  14 59 34.238776 +37 00 11.77931
 2018-Aug-04 14:06  m  14 59 34.234625 +37 00 11.68013
 2018-Aug-04 14:07  m  14 59 34.230474 +37 00 11.58095
 2018-Aug-04 14:08  m  14 59 34.226324 +37 00 11.48178
 2018-Aug-04 14:09  m  14 59 34.222175 +37 00 11.38262
 2018-Aug-04 14:10  m  14 59 34.218027 +37 00 11.28346
 2018-Aug-04 14:11  m  14 59 34.213879 +37 00 11.18431
 2018-Aug-04 14:12  m  14 59 34.209732 +37 00 11.08516
 2018-Aug-04 14:13  m  14 59 34.205585 +37 00 10.98601
 2018-Aug-04 14:14  m  14 59 34.201440 +37 00 10.88687
 2018-Aug-04 14:15  m  14 59 34.197295 +37 00 10.78774
 2018-Aug-04 14:16  m  14 59 34.193150 +37 00 10.68861
 2018-Aug-04 14:17  m  14 59 34.189006 +37 00 10.58948
 2018-Aug-04 14:18  m  14 59 34.184863 +37 00 10.49036
 2018-Aug-04 14:19  m  14 59 34.180721 +37 00 10.39125
 2018-Aug-04 14:20  m  14 59 34.176579 +37 00 10.29214
 2018-Aug-04 14:21  m  14 59 34.172438 +37 00 10.19304
 2018-Aug-04 14:22  m  14 59 34.168297 +37 00 10.09394
 2018-Aug-04 14:23  m  14 59 34.164158 +37 00 09.99484
 2018-Aug-04 14:24  m  14 59 34.160018 +37 00 09.89575
 2018-Aug-04 14:25  m  14 59 34.155880 +37 00 09.79667
 2018-Aug-04 14:26  m  14 59 34.151742 +37 00 09.69759
 2018-Aug-04 14:27  m  14 59 34.147605 +37 00 09.59852
 2018-Aug-04 14:28  m  14 59 34.143468 +37 00 09.49945
 2018-Aug-04 14:29  m  14 59 34.139332 +37 00 09.40038
 2018-Aug-04 14:30  m  14 59 34.135196 +37 00 09.30133
 2018-Aug-04 14:31  m  14 59 34.131062 +37 00 09.20227
 2018-Aug-04 14:32  m  14 59 34.126927 +37 00 09.10323
 2018-Aug-04 14:33  m  14 59 34.122794 +37 00 09.00418
 2018-Aug-04 14:34  m  14 59 34.118661 +37 00 08.90515
 2018-Aug-04 14:35  m  14 59 34.114528 +37 00 08.80611
 2018-Aug-04 14:36  m  14 59 34.110397 +37 00 08.70709
 2018-Aug-04 14:37  m  14 59 34.106265 +37 00 08.60807
 2018-Aug-04 14:38  m  14 59 34.102135 +37 00 08.50905
 2018-Aug-04 14:39  m  14 59 34.098005 +37 00 08.41004
 2018-Aug-04 14:40 Am  14 59 34.093875 +37 00 08.31104
 2018-Aug-04 14:41 Am  14 59 34.089746 +37 00 08.21204
 2018-Aug-04 14:42 Am  14 59 34.085618 +37 00 08.11304
 2018-Aug-04 14:43 Am  14 59 34.081490 +37 00 08.01405
 2018-Aug-04 14:44 Am  14 59 34.077363 +37 00 07.91507
 2018-Aug-04 14:45 Am  14 59 34.073237 +37 00 07.81609
 2018-Aug-04 14:46 Am  14 59 34.069111 +37 00 07.71712
 2018-Aug-04 14:47 Am  14 59 34.064985 +37 00 07.61815
 2018-Aug-04 14:48 Am  14 59 34.060860 +37 00 07.51919
 2018-Aug-04 14:49 Am  14 59 34.056736 +37 00 07.42023
 2018-Aug-04 14:50 Am  14 59 34.052612 +37 00 07.32128
 2018-Aug-04 14:51 Am  14 59 34.048489 +37 00 07.22233
 2018-Aug-04 14:52 Am  14 59 34.044366 +37 00 07.12339
 2018-Aug-04 14:53 Am  14 59 34.040244 +37 00 07.02446
 2018-Aug-04 14:54 Am  14 59 34.036122 +37 00 06.92553
 2018-Aug-04 14:55 Am  14 59 34.032001 +37 00 06.82661
 2018-Aug-04 14:56 Am  14 59 34.027881 +37 00 06.72769
 2018-Aug-04 14:57 Am  14 59 34.023761 +37 00 06.62878
 2018-Aug-04 14:58 Am  14 59 34.019641 +37 00 06.52987
 2018-Aug-04 14:59 Am  14 59 34.015522 +37 00 06.43097
 2018-Aug-04 15:00 Am  14 59 34.011403 +37 00 06.33207
 2018-Aug-04 15:01 Am  14 59 34.007285 +37 00 06.23318
 2018-Aug-04 15:02 Am  14 59 34.003168 +37 00 06.13430
 2018-Aug-04 15:03 Am  14 59 33.999051 +37 00 06.03542
 2018-Aug-04 15:04 Am  14 59 33.994934 +37 00 05.93655
 2018-Aug-04 15:05 Am  14 59 33.990818 +37 00 05.83768
 2018-Aug-04 15:06 Am  14 59 33.986703 +37 00 05.73882
 2018-Aug-04 15:07 Am  14 59 33.982588 +37 00 05.63996
 2018-Aug-04 15:08 Nm  14 59 33.978473 +37 00 05.54111
 2018-Aug-04 15:09 Nm  14 59 33.974359 +37 00 05.44227
 2018-Aug-04 15:10 Nm  14 59 33.970246 +37 00 05.34343
 2018-Aug-04 15:11 Nm  14 59 33.966133 +37 00 05.24459
 2018-Aug-04 15:12 Nm  14 59 33.962020 +37 00 05.14577
 2018-Aug-04 15:13 Nm  14 59 33.957908 +37 00 05.04694
 2018-Aug-04 15:14 Nm  14 59 33.953796 +37 00 04.94813
 2018-Aug-04 15:15 Nm  14 59 33.949685 +37 00 04.84932
 2018-Aug-04 15:16 Nm  14 59 33.945574 +37 00 04.75051
 2018-Aug-04 15:17 Nm  14 59 33.941464 +37 00 04.65171
 2018-Aug-04 15:18 Nm  14 59 33.937354 +37 00 04.55292
 2018-Aug-04 15:19 Nm  14 59 33.933244 +37 00 04.45413
 2018-Aug-04 15:20 Nm  14 59 33.929135 +37 00 04.35535
 2018-Aug-04 15:21 Nm  14 59 33.925026 +37 00 04.25658
